NUSAT-1 (FRESCO)        
1 41557U 16033B   22191.51751421  .00009491  00000+0  28037-3 0  9991
2 41557  97.3889 289.2614 0009375 298.5318 116.1111 15.35125201340925
BEESAT-4                
1 41619U 16040W   22191.37733337  .00009496  00000+0  31271-3 0  9997
2 41619  97.2157 241.3991 0010257  45.8461 314.3623 15.31639610324237
CAS-2T & KS-1Q          
1 41847U 16066G   22191.15679898  .00000998  00000+0  15800-3 0  9993
2 41847  98.5498 255.8029 0364567 141.8510 220.9096 14.38621739297618
NAYIF-1 (EO-88)         
1 42017U 17008BX  22191.12075115  .00012064  00000+0  35486-3 0  9998
2 42017  97.2683 256.9127 0006163 149.9999 210.1599 15.35213823300552
ZHUHAI-1 02 (CAS-4B)    
1 42759U 17034B   22191.50833404  .00001771  00000+0  11407-3 0  9995
2 42759  43.0162 205.6098 0008039  67.9657  63.8043 15.12033238279847
ZHUHAI-1 01 (CAS-4A)    
1 42761U 17034D   22191.34332082  .00001568  00000+0  10228-3 0  9990
2 42761  43.0163 205.2874 0008202  68.9101  55.9219 15.12116189279828
MAX VALIER SAT          
1 42778U 17036P   22191.12561485  .00006102  00000+0  23064-3 0  9998
2 42778  97.2039 231.4495 0009058 238.8143 121.2209 15.27296324280366
RADFXSAT (FOX-1B)       
1 43017U 17073E   22191.40447160  .00002892  00000+0  21869-3 0  9993
2 43017  97.6734  84.6582 0249746 112.5489 250.2361 14.81506946250514
FOX-1D (AO-92)          
1 43137U 18004AC  22191.45033789  .00006463  00000+0  22688-3 0  9992
2 43137  97.3685 266.4033 0005812 280.3746  79.6839 15.29738304249861
DIWATA-2B               
1 43678U 18084H   22191.51708427  .00000219  00000+0  27318-4 0  9994
2 43678  97.9739 325.0568 0009126 202.8090 157.2775 14.92196821201293
ES'HAIL 2               
1 43700U 18090A   22191.32751525  .00000154  00000+0  00000+0 0  9995
2 43700   0.0167  74.2691 0001417  50.1235 307.5132  1.00271199 13250
FOX-1CLIFF (AO-95)      
1 43770U 18099N   22191.19069963  .00002255  00000+0  20309-3 0  9996
2 43770  97.6197 256.9502 0013940 192.9361 167.1506 14.96519411196417
ITASAT 1                
1 43786U 18099AE  22191.18184056  .00001564  00000+0  14190-3 0  9996
2 43786  97.6220 257.8728 0014774 186.9176 173.1844 14.96652734196456
JY1SAT (JO-97)          
1 43803U 18099AX  22191.12516364  .00002405  00000+0  21267-3 0  9999
2 43803  97.6183 257.5786 0014773 185.1109 174.9964 14.97166183196463
UWE-4                   
1 43880U 18111E   22191.50915584  .00001630  00000+0  14189-3 0  9992
2 43880  97.6683  97.4195 0009948 241.3354 118.6869 14.98263947193152
NEXUS (FO-99)           
1 43937U 19003F   22191.04631388  .00010423  00000+0  34626-3 0  9990
2 43937  97.1291 223.5213 0022328  75.7202 284.6517 15.31134060193432
PSAT2 (NO-104)          
1 44354U 19036R   22190.80655599  .00046758 -59436-5  39494-3 0  9995
2 44354  28.5273  23.0842 0221288 223.1924 135.1125 15.42220174168139
JAISAT-1                
1 44419U 19038F   22191.45039952  .00006521  00000+0  32604-3 0  9996
2 44419  97.6360 161.7629 0020900  55.6355 304.6851 15.17600508166549
DUCHIFAT-3              
1 44854U 19089C   22191.46441904  .00002352  00000+0  18587-3 0  9992
2 44854  36.9685 323.9155 0008438  38.9078  14.5167 15.01195498141395
CAS-6 (TO-108)          
1 44881U 19093C   22191.40354436  .00000361  00000+0  52327-4 0  9993
2 44881  97.8924 270.2838 0016322 109.5813 250.7175 14.81749391138171
RS-44 & BREEZE-KM R/B   
1 44909U 19096E   22191.48886056  .00000028  00000+0  75787-4 0  9998
2 44909  82.5198 214.9717 0216165 265.8676  91.7694 12.79713874118457
ORBITAL FACTORY 2 (OF-2)
1 45113U 19071C   22191.51068269  .00021216  00000+0  42865-3 0  9993
2 45113  51.6397 305.8360 0009572 260.3696  99.6210 15.46389214136940
HUSKYSAT-1 (HO-107)     
1 45119U 19071J   22191.33702680  .00016837  00000+0  35459-3 0  9995
2 45119  51.6387 306.8989 0009316 255.0047 104.9909 15.45345042136901
BY70-2                  
1 45857U 20042B   22191.41439224  .00004540  00000+0  60584-3 0  9999
2 45857  97.9544 268.0371 0011508  51.7909 308.4443 14.80033198108857
SALSAT                  
1 46495U 20068K   22191.50696222  .00001846  00000+0  13568-3 0  9995
2 46495  97.7310 132.8162 0015977 193.9654 166.1132 15.04591602 97656
BY70-3                  
1 46839U 20079N   22191.40219073  .00018663  00000+0  42786-3 0  9992
2 46839  97.1968 263.2067 0004417 226.9131 195.4684 15.42785401 93789
RADFXSAT-2 (AO-109)     
1 47311U 21002C   22191.47498675  .00005129  00000+0  21018-3 0  9997
2 47311  60.6860 275.5652 0020649 355.5264   4.5636 15.25579572 81974
UVSQ-SAT                
1 47438U 21006AB  22191.12084198  .00004591  00000+0  24279-3 0  9998
2 47438  97.4362 249.6665 0011775 188.1892 171.9150 15.15896723 80712
DIY-1 (ARDUIQUBE)       
1 47963U 21022AH  22190.95345168  .00012714  00000+0  70009-3 0  9994
2 47963  97.5306  92.0575 0018823  58.3007 302.0056 15.14011963 70356
XW-3 (CAS-9)            
1 50466U 21131B   22191.54317664  .00000105  00000+0  48825-4 0  9996
2 50466  98.5803 268.7861 0005850  85.6903 274.4952 14.38506347 28232
TEVEL-3                 
1 50988U 22002E   22191.41833424  .00004803  00000+0  26313-3 0  9992
2 50988  97.4804 258.0185 0008881 355.1301  64.6373 15.14649986 26893
TEVEL-8                 
1 50989U 22002F   22191.42340600  .00004908  00000+0  26918-3 0  9990
2 50989  97.4817 258.0437 0008981 353.5370  61.7659 15.14599031 26897
TEVEL-5                 
1 50998U 22002Q   22191.43256111  .00005217  00000+0  28156-3 0  9994
2 50998  97.4799 258.1360 0010532 348.5465  74.8363 15.15132019 26905
TEVEL-6                 
1 50999U 22002R   22191.43105501  .00005180  00000+0  27957-3 0  9998
2 50999  97.4795 258.1323 0010341 348.8260  68.5856 15.15136525 26908
TEVEL-1                 
1 51013U 22002AF  22191.42019885  .00004864  00000+0  26656-3 0  9997
2 51013  97.4803 258.0032 0008952 354.0825  61.8633 15.14626093 26893
TEVEL-7                 
1 51062U 22002CG  22191.50374030  .00004962  00000+0  27217-3 0  9999
2 51062  97.4814 258.1109 0009000 352.6400 132.5345 15.14590468 26907
TEVEL-4                 
1 51063U 22002CH  22191.50421950  .00004983  00000+0  27338-3 0  9991
2 51063  97.4815 258.1087 0008992 353.2809 131.3132 15.14582575 26904
TEVEL-2                 
1 51069U 22002CP  22191.49827638  .00004839  00000+0  26510-3 0  9999
2 51069  97.4799 258.0865 0008753 354.6181 134.7064 15.14643558 26907
CUTE-1 (CO-55)          
1 27844U 03031E   22191.42787369  .00000179  00000+0  99623-4 0  9992
2 27844  98.6779 198.7665 0010696  41.3420 318.8566 14.22464161987137
CUBESAT XI-IV (CO-57)   
1 27848U 03031J   22191.46838821  .00000155  00000+0  89786-4 0  9993
2 27848  98.6823 199.3215 0010774  54.1739 306.0438 14.22019748986954
CUBESAT XI-V            
1 28895U 05043F   22191.34100720  .00000627  00000+0  12737-3 0  9993
2 28895  98.1094 322.3701 0017899  71.4890 288.8255 14.64377291890768
CUTE-1.7+APD II (CO-65) 
1 32785U 08021C   22191.40336196  .00001370  00000+0  14877-3 0  9993
2 32785  97.6584 161.5267 0013256 151.2994 208.8956 14.89650836769901
AAUSAT-II               
1 32788U 08021F   22191.48941354  .00003420  00000+0  29683-3 0  9991
2 32788  97.5322 175.9905 0012267  51.3261 308.9057 14.97622735771889
DELFI-C3 (DO-64)        
1 32789U 08021G   22191.35026934  .00008500  00000+0  46823-3 0  9995
2 32789  97.3378 216.8249 0008573 236.8637 123.1773 15.14218913775398
SEEDS II (CO-66)        
1 32791U 08021J   22191.16737756  .00002007  00000+0  19919-3 0  9990
2 32791  97.6124 166.7671 0014279 111.1400 249.1347 14.92757275770663
SWISSCUBE               
1 35932U 09051B   22191.52138079  .00000493  00000+0  12094-3 0  9991
2 35932  98.5665  48.1004 0007250 346.8410  13.2597 14.56888892679457
BEESAT-1                
1 35933U 09051C   22191.54489946  .00000423  00000+0  10527-3 0  9998
2 35933  98.5606  49.7387 0005764   2.5304 357.5921 14.56902019679532
ITUPSAT1                
1 35935U 09051E   22191.30157476  .00000358  00000+0  92463-4 0  9991
2 35935  98.5707  49.5387 0008116   2.6242 357.4995 14.56008696679202
TISAT 1                 
1 36799U 10035E   22191.57536225  .00001677  00000+0  16718-3 0  9999
2 36799  98.1806  42.9291 0012456  26.4150 333.7701 14.92977769651211
M-CUBED & EXP-1 PRIME   
1 37855U 11061F   22191.32551944  .00004500  00000+0  20046-3 0  9998
2 37855 101.7113 322.5102 0152258 353.7806   6.1516 15.12695138584696
AEROCUBE 4.5A           
1 38767U 12048K   22191.53089414  .00002391  00000+0  17418-3 0  9993
2 38767  64.6657  38.3670 0175290 256.2615 101.8934 14.94954525154234
AEROCUBE 4.5B           
1 38768U 12048L   22191.47348924  .00004364  00000+0  27925-3 0  9997
2 38768  64.6670 352.5802 0162247 251.6884 106.6524 14.99729237154607
STRAND-1                
1 39090U 13009E   22191.51326723  .00000161  00000+0  71060-4 0  9993
2 39090  98.4036  29.0464 0008610 195.3170 164.7757 14.35300917490709
BRITE-AUSTRIA           
1 39091U 13009F   22191.49830964  .00000104  00000+0  51243-4 0  9996
2 39091  98.4052  28.2035 0009898 203.5460 156.5274 14.35281415490733
SOMP                    
1 39134U 13015E   22191.52472784  .00010915  00000+0  38585-3 0  9991
2 39134  64.8621 346.1438 0035416 276.2173  83.4925 15.28993620510388
BEESAT-3                
1 39135U 13015F   22190.63653909  .00006764  00000+0  27903-3 0  9992
2 39135  64.8666  25.6424 0038508 282.3365  77.3455 15.24205064509492
BEESAT-2                
1 39136U 13015G   22191.55251103  .00007024  00000+0  30248-3 0  9991
2 39136  64.8753  30.9461 0017608 296.9871  62.9459 15.23227727509438
NEE-01 PEGASO           
1 39151U 13018B   22191.28092300  .00000967  00000+0  13160-3 0  9996
2 39151  97.9930 296.8671 0016967 176.5691 183.5640 14.80981319497057
ESTCUBE 1               
1 39161U 13021C   22191.45139570  .00000595  00000+0  10028-3 0  9998
2 39161  97.9084 268.0900 0009281 356.8136   3.3017 14.72985910492854
